PRAETORIAN SDA_617      
1 65580U 25203R   26066.58924727  .00000083  00000+0  64589-4 0  9996
2 65580  81.3007 104.8351 0008737 106.3470 253.8647 13.83191284 24644
PRAETORIAN SDA_618      
1 65581U 25203S   26066.60517195  .00000196  00000+0  16343-3 0  9996
2 65581  81.2993 104.6656 0011046 107.4795 252.7571 13.84761663 24653
PRAETORIAN SDA_619      
1 65582U 25203T   26066.57980818  .00000262  00000+0  22573-3 0  9995
2 65582  81.3015 104.8306 0009339 105.4929 254.7259 13.83930248 25273
PRAETORIAN SDA_620      
1 65583U 25203U   26066.58857571  .00000267  00000+0  23070-3 0  9994
2 65583  81.3003 104.8171 0008924 104.9970 255.2175 13.83704038 24649
PRAETORIAN SDA_621      
1 65584U 25203V   26066.57277015  .00000089  00000+0  69491-4 0  9993
2 65584  81.2990 104.7816 0008677 101.1807 259.0326 13.83787237 24644
PRAETORIAN SDA_601      
1 65585U 25203W   26066.58401928  .00000249  00000+0  21512-3 0  9996
2 65585  81.3004 104.9831 0006552 113.6751 246.5094 13.83484688 24633
