[{"OBJECT_NAME":"PRAETORIAN SDA_617","OBJECT_ID":"2025-203R","EPOCH":"2026-03-07T14:08:30.964128","MEAN_MOTION":13.83191284,"ECCENTRICITY":0.00087375,"INCLINATION":81.3007,"RA_OF_ASC_NODE":104.8351,"ARG_OF_PERICENTER":106.347,"MEAN_ANOMALY":253.8647,"EPHEMERIS_TYPE":0,"CLASSIFICATION_TYPE":"U","NORAD_CAT_ID":65580,"ELEMENT_SET_NO":999,"REV_AT_EPOCH":2464,"BSTAR":6.4588575e-5,"MEAN_MOTION_DOT":8.3e-7,"MEAN_MOTION_DDOT":0},{"OBJECT_NAME":"PRAETORIAN SDA_618","OBJECT_ID":"2025-203S","EPOCH":"2026-03-07T14:31:26.856480","MEAN_MOTION":13.84761663,"ECCENTRICITY":0.00110464,"INCLINATION":81.2993,"RA_OF_ASC_NODE":104.6656,"ARG_OF_PERICENTER":107.4795,"MEAN_ANOMALY":252.7571,"EPHEMERIS_TYPE":0,"CLASSIFICATION_TYPE":"U","NORAD_CAT_ID":65581,"ELEMENT_SET_NO":999,"REV_AT_EPOCH":2465,"BSTAR":0.00016342532,"MEAN_MOTION_DOT":1.96e-6,"MEAN_MOTION_DDOT":0},{"OBJECT_NAME":"PRAETORIAN SDA_619","OBJECT_ID":"2025-203T","EPOCH":"2026-03-07T13:54:55.426752","MEAN_MOTION":13.83930248,"ECCENTRICITY":0.00093391,"INCLINATION":81.3015,"RA_OF_ASC_NODE":104.8306,"ARG_OF_PERICENTER":105.4929,"MEAN_ANOMALY":254.7259,"EPHEMERIS_TYPE":0,"CLASSIFICATION_TYPE":"U","NORAD_CAT_ID":65582,"ELEMENT_SET_NO":999,"REV_AT_EPOCH":2527,"BSTAR":0.0002257319,"MEAN_MOTION_DOT":2.62e-6,"MEAN_MOTION_DDOT":0},{"OBJECT_NAME":"PRAETORIAN SDA_620","OBJECT_ID":"2025-203U","EPOCH":"2026-03-07T14:07:32.941344","MEAN_MOTION":13.83704038,"ECCENTRICITY":0.00089247,"INCLINATION":81.3003,"RA_OF_ASC_NODE":104.8171,"ARG_OF_PERICENTER":104.997,"MEAN_ANOMALY":255.2175,"EPHEMERIS_TYPE":0,"CLASSIFICATION_TYPE":"U","NORAD_CAT_ID":65583,"ELEMENT_SET_NO":999,"REV_AT_EPOCH":2464,"BSTAR":0.00023069699,"MEAN_MOTION_DOT":2.67e-6,"MEAN_MOTION_DDOT":0},{"OBJECT_NAME":"PRAETORIAN SDA_621","OBJECT_ID":"2025-203V","EPOCH":"2026-03-07T13:44:47.340960","MEAN_MOTION":13.83787237,"ECCENTRICITY":0.00086777,"INCLINATION":81.299,"RA_OF_ASC_NODE":104.7816,"ARG_OF_PERICENTER":101.1807,"MEAN_ANOMALY":259.0326,"EPHEMERIS_TYPE":0,"CLASSIFICATION_TYPE":"U","NORAD_CAT_ID":65584,"ELEMENT_SET_NO":999,"REV_AT_EPOCH":2464,"BSTAR":6.9490954e-5,"MEAN_MOTION_DOT":8.9e-7,"MEAN_MOTION_DDOT":0},{"OBJECT_NAME":"PRAETORIAN SDA_601","OBJECT_ID":"2025-203W","EPOCH":"2026-03-07T14:00:59.265792","MEAN_MOTION":13.83484688,"ECCENTRICITY":0.00065521,"INCLINATION":81.3004,"RA_OF_ASC_NODE":104.9831,"ARG_OF_PERICENTER":113.6751,"MEAN_ANOMALY":246.5094,"EPHEMERIS_TYPE":0,"CLASSIFICATION_TYPE":"U","NORAD_CAT_ID":65585,"ELEMENT_SET_NO":999,"REV_AT_EPOCH":2463,"BSTAR":0.00021512062,"MEAN_MOTION_DOT":2.49e-6,"MEAN_MOTION_DDOT":0}]
